[{"OBJECT_NAME":"FENGYUN 1C DEB","OBJECT_ID":"1999-025AYM","EPOCH":"2024-10-28T21:28:22.565568","MEAN_MOTION":14.26781938,"ECCENTRICITY":0.0037392,"INCLINATION":99.2031,"RA_OF_ASC_NODE":171.3314,"ARG_OF_PERICENTER":30.5531,"MEAN_ANOMALY":341.4888,"EPHEMERIS_TYPE":0,"CLASSIFICATION_TYPE":"U","NORAD_CAT_ID":30899,"ELEMENT_SET_NO":999,"REV_AT_EPOCH":90795,"BSTAR":0.0095369,"MEAN_MOTION_DOT":0.00023305,"MEAN_MOTION_DDOT":0},{"OBJECT_NAME":"FENGYUN 1C DEB","OBJECT_ID":"1999-025AYQ","EPOCH":"2024-10-17T11:05:33.729216","MEAN_MOTION":14.22650756,"ECCENTRICITY":0.0104099,"INCLINATION":100.2284,"RA_OF_ASC_NODE":187.4441,"ARG_OF_PERICENTER":7.4904,"MEAN_ANOMALY":352.7796,"EPHEMERIS_TYPE":0,"CLASSIFICATION_TYPE":"U","NORAD_CAT_ID":30902,"ELEMENT_SET_NO":999,"REV_AT_EPOCH":90889,"BSTAR":0.0041242,"MEAN_MOTION_DOT":9.711e-5,"MEAN_MOTION_DDOT":0},{"OBJECT_NAME":"FENGYUN 1C DEB","OBJECT_ID":"1999-025AYR","EPOCH":"2024-10-18T10:25:55.577856","MEAN_MOTION":13.9728888,"ECCENTRICITY":0.0096482,"INCLINATION":99.425,"RA_OF_ASC_NODE":162.4476,"ARG_OF_PERICENTER":154.7478,"MEAN_ANOMALY":205.8445,"EPHEMERIS_TYPE":0,"CLASSIFICATION_TYPE":"U","NORAD_CAT_ID":30903,"ELEMENT_SET_NO":999,"REV_AT_EPOCH":62834,"BSTAR":0.00084989,"MEAN_MOTION_DOT":1.193e-5,"MEAN_MOTION_DDOT":0},{"OBJECT_NAME":"FENGYUN 1C DEB","OBJECT_ID":"1999-025AYT","EPOCH":"2024-10-26T21:52:58.821888","MEAN_MOTION":14.138191,"ECCENTRICITY":0.0064619,"INCLINATION":98.9104,"RA_OF_ASC_NODE":10.8038,"ARG_OF_PERICENTER":172.4574,"MEAN_ANOMALY":187.7585,"EPHEMERIS_TYPE":0,"CLASSIFICATION_TYPE":"U","NORAD_CAT_ID":30905,"ELEMENT_SET_NO":999,"REV_AT_EPOCH":90447,"BSTAR":0.0053701,"MEAN_MOTION_DOT":0.00010342,"MEAN_MOTION_DDOT":0},{"OBJECT_NAME":"FENGYUN 1C DEB","OBJECT_ID":"1999-025AYU","EPOCH":"2024-10-04T17:33:56.041632","MEAN_MOTION":14.14867512,"ECCENTRICITY":0.0081852,"INCLINATION":99.1144,"RA_OF_ASC_NODE":246.0536,"ARG_OF_PERICENTER":40.0359,"MEAN_ANOMALY":320.6808,"EPHEMERIS_TYPE":0,"CLASSIFICATION_TYPE":"U","NORAD_CAT_ID":30906,"ELEMENT_SET_NO":999,"REV_AT_EPOCH":57932,"BSTAR":0.0058392,"MEAN_MOTION_DOT":0.00011616,"MEAN_MOTION_DDOT":0},{"OBJECT_NAME":"FENGYUN 1C DEB","OBJECT_ID":"1999-025AYV","EPOCH":"2024-10-23T15:32:26.742336","MEAN_MOTION":14.12397886,"ECCENTRICITY":0.0056529,"INCLINATION":99.9361,"RA_OF_ASC_NODE":265.002,"ARG_OF_PERICENTER":195.4039,"MEAN_ANOMALY":164.541,"EPHEMERIS_TYPE":0,"CLASSIFICATION_TYPE":"U","NORAD_CAT_ID":30907,"ELEMENT_SET_NO":999,"REV_AT_EPOCH":90506,"BSTAR":0.0018661,"MEAN_MOTION_DOT":3.442e-5,"MEAN_MOTION_DDOT":0},{"OBJECT_NAME":"FENGYUN 1C DEB","OBJECT_ID":"1999-025AZA","EPOCH":"2024-10-28T09:02:16.193184","MEAN_MOTION":14.72697802,"ECCENTRICITY":0.0080758,"INCLINATION":98.9903,"RA_OF_ASC_NODE":86.9735,"ARG_OF_PERICENTER":312.7693,"MEAN_ANOMALY":46.6737,"EPHEMERIS_TYPE":0,"CLASSIFICATION_TYPE":"U","NORAD_CAT_ID":30912,"ELEMENT_SET_NO":999,"REV_AT_EPOCH":93357,"BSTAR":0.0050538,"MEAN_MOTION_DOT":0.00034033,"MEAN_MOTION_DDOT":0},{"OBJECT_NAME":"FENGYUN 1C DEB","OBJECT_ID":"1999-025AZB","EPOCH":"2024-10-28T19:57:05.578848","MEAN_MOTION":14.03704898,"ECCENTRICITY":0.0048134,"INCLINATION":98.7891,"RA_OF_ASC_NODE":337.8738,"ARG_OF_PERICENTER":250.054,"MEAN_ANOMALY":109.5439,"EPHEMERIS_TYPE":0,"CLASSIFICATION_TYPE":"U","NORAD_CAT_ID":30913,"ELEMENT_SET_NO":999,"REV_AT_EPOCH":90164,"BSTAR":0.0023088,"MEAN_MOTION_DOT":3.626e-5,"MEAN_MOTION_DDOT":0},{"OBJECT_NAME":"FENGYUN 1C DEB","OBJECT_ID":"1999-025AZC","EPOCH":"2024-10-28T10:56:24.757440","MEAN_MOTION":13.06620916,"ECCENTRICITY":0.050698,"INCLINATION":99.9806,"RA_OF_ASC_NODE":206.8924,"ARG_OF_PERICENTER":216.3117,"MEAN_ANOMALY":140.2577,"EPHEMERIS_TYPE":0,"CLASSIFICATION_TYPE":"U","NORAD_CAT_ID":30914,"ELEMENT_SET_NO":999,"REV_AT_EPOCH":53712,"BSTAR":0.0062288,"MEAN_MOTION_DOT":3.805e-5,"MEAN_MOTION_DDOT":0},{"OBJECT_NAME":"FENGYUN 1C DEB","OBJECT_ID":"1999-025AZD","EPOCH":"2024-10-28T22:34:24.219840","MEAN_MOTION":14.20468349,"ECCENTRICITY":0.0055107,"INCLINATION":98.964,"RA_OF_ASC_NODE":6.3192,"ARG_OF_PERICENTER":264.7523,"MEAN_ANOMALY":94.7363,"EPHEMERIS_TYPE":0,"CLASSIFICATION_TYPE":"U","NORAD_CAT_ID":30915,"ELEMENT_SET_NO":999,"REV_AT_EPOCH":90684,"BSTAR":0.0066126,"MEAN_MOTION_DOT":0.0001439,"MEAN_MOTION_DDOT":0},{"OBJECT_NAME":"FENGYUN 1C DEB","OBJECT_ID":"1999-025AZE","EPOCH":"2024-10-27T15:35:48.181344","MEAN_MOTION":14.06438585,"ECCENTRICITY":0.0064968,"INCLINATION":99.0517,"RA_OF_ASC_NODE":356.2292,"ARG_OF_PERICENTER":326.1514,"MEAN_ANOMALY":189.7451,"EPHEMERIS_TYPE":0,"CLASSIFICATION_TYPE":"U","NORAD_CAT_ID":30916,"ELEMENT_SET_NO":999,"REV_AT_EPOCH":90086,"BSTAR":0.0037601,"MEAN_MOTION_DOT":6.293e-5,"MEAN_MOTION_DDOT":0},{"OBJECT_NAME":"FENGYUN 1C DEB","OBJECT_ID":"1999-025AZG","EPOCH":"2024-10-28T08:46:45.570144","MEAN_MOTION":13.94316186,"ECCENTRICITY":0.0162286,"INCLINATION":98.3859,"RA_OF_ASC_NODE":84.37,"ARG_OF_PERICENTER":191.3891,"MEAN_ANOMALY":197.8352,"EPHEMERIS_TYPE":0,"CLASSIFICATION_TYPE":"U","NORAD_CAT_ID":30918,"ELEMENT_SET_NO":999,"REV_AT_EPOCH":89328,"BSTAR":0.0070444,"MEAN_MOTION_DOT":0.00010423,"MEAN_MOTION_DDOT":0},{"OBJECT_NAME":"FENGYUN 1C DEB","OBJECT_ID":"1999-025AZH","EPOCH":"2024-10-28T21:04:29.174880","MEAN_MOTION":14.64234258,"ECCENTRICITY":0.0033767,"INCLINATION":98.8032,"RA_OF_ASC_NODE":85.849,"ARG_OF_PERICENTER":176.7088,"MEAN_ANOMALY":183.4341,"EPHEMERIS_TYPE":0,"CLASSIFICATION_TYPE":"U","NORAD_CAT_ID":30919,"ELEMENT_SET_NO":999,"REV_AT_EPOCH":91745,"BSTAR":0.02118,"MEAN_MOTION_DOT":0.0011433,"MEAN_MOTION_DDOT":0},{"OBJECT_NAME":"FENGYUN 1C DEB","OBJECT_ID":"1999-025AZJ","EPOCH":"2024-10-27T15:58:38.976096","MEAN_MOTION":14.07265099,"ECCENTRICITY":0.0132848,"INCLINATION":98.9204,"RA_OF_ASC_NODE":78.5922,"ARG_OF_PERICENTER":181.3578,"MEAN_ANOMALY":178.7249,"EPHEMERIS_TYPE":0,"CLASSIFICATION_TYPE":"U","NORAD_CAT_ID":30920,"ELEMENT_SET_NO":999,"REV_AT_EPOCH":89290,"BSTAR":0.018102,"MEAN_MOTION_DOT":0.00033011,"MEAN_MOTION_DDOT":0},{"OBJECT_NAME":"FENGYUN 1C DEB","OBJECT_ID":"1999-025AZK","EPOCH":"2024-10-28T05:05:41.672832","MEAN_MOTION":14.26843881,"ECCENTRICITY":0.0021842,"INCLINATION":98.8599,"RA_OF_ASC_NODE":16.829,"ARG_OF_PERICENTER":154.6208,"MEAN_ANOMALY":273.5936,"EPHEMERIS_TYPE":0,"CLASSIFICATION_TYPE":"U","NORAD_CAT_ID":30921,"ELEMENT_SET_NO":999,"REV_AT_EPOCH":90965,"BSTAR":0.0074032,"MEAN_MOTION_DOT":0.00018002,"MEAN_MOTION_DDOT":0},{"OBJECT_NAME":"FENGYUN 1C DEB","OBJECT_ID":"1999-025AZL","EPOCH":"2024-10-28T08:06:35.621856","MEAN_MOTION":14.15772479,"ECCENTRICITY":0.0014891,"INCLINATION":98.6708,"RA_OF_ASC_NODE":323.3591,"ARG_OF_PERICENTER":146.2262,"MEAN_ANOMALY":225.9929,"EPHEMERIS_TYPE":0,"CLASSIFICATION_TYPE":"U","NORAD_CAT_ID":30922,"ELEMENT_SET_NO":999,"REV_AT_EPOCH":90753,"BSTAR":0.0024088,"MEAN_MOTION_DOT":4.695e-5,"MEAN_MOTION_DDOT":0},{"OBJECT_NAME":"FENGYUN 1C DEB","OBJECT_ID":"1999-025AZM","EPOCH":"2024-10-28T16:54:57.578976","MEAN_MOTION":14.56510546,"ECCENTRICITY":0.0022818,"INCLINATION":98.8739,"RA_OF_ASC_NODE":29.535,"ARG_OF_PERICENTER":253.8992,"MEAN_ANOMALY":105.9692,"EPHEMERIS_TYPE":0,"CLASSIFICATION_TYPE":"U","NORAD_CAT_ID":30923,"ELEMENT_SET_NO":999,"REV_AT_EPOCH":91261,"BSTAR":0.021762,"MEAN_MOTION_DOT":0.00098537,"MEAN_MOTION_DDOT":0},{"OBJECT_NAME":"FENGYUN 1C DEB","OBJECT_ID":"1999-025AZN","EPOCH":"2024-10-28T20:52:30.999936","MEAN_MOTION":14.66485707,"ECCENTRICITY":0.0024048,"INCLINATION":98.9598,"RA_OF_ASC_NODE":89.3788,"ARG_OF_PERICENTER":41.348,"MEAN_ANOMALY":120.6124,"EPHEMERIS_TYPE":0,"CLASSIFICATION_TYPE":"U","NORAD_CAT_ID":30924,"ELEMENT_SET_NO":999,"REV_AT_EPOCH":91250,"BSTAR":0.025043,"MEAN_MOTION_DOT":0.00142197,"MEAN_MOTION_DDOT":0},{"OBJECT_NAME":"FENGYUN 1C DEB","OBJECT_ID":"1999-025AZP","EPOCH":"2024-10-28T19:47:03.750144","MEAN_MOTION":14.33496703,"ECCENTRICITY":0.0034192,"INCLINATION":98.8674,"RA_OF_ASC_NODE":54.5498,"ARG_OF_PERICENTER":11.1125,"MEAN_ANOMALY":141.3758,"EPHEMERIS_TYPE":0,"CLASSIFICATION_TYPE":"U","NORAD_CAT_ID":30925,"ELEMENT_SET_NO":999,"REV_AT_EPOCH":91177,"BSTAR":0.009315,"MEAN_MOTION_DOT":0.00025966,"MEAN_MOTION_DDOT":0},{"OBJECT_NAME":"FENGYUN 1C DEB","OBJECT_ID":"1999-025AZQ","EPOCH":"2024-10-28T15:25:18.460128","MEAN_MOTION":14.83313513,"ECCENTRICITY":0.0179888,"INCLINATION":98.7988,"RA_OF_ASC_NODE":193.7592,"ARG_OF_PERICENTER":253.6928,"MEAN_ANOMALY":104.4433,"EPHEMERIS_TYPE":0,"CLASSIFICATION_TYPE":"U","NORAD_CAT_ID":30926,"ELEMENT_SET_NO":999,"REV_AT_EPOCH":94677,"BSTAR":0.0014829,"MEAN_MOTION_DOT":0.00016122,"MEAN_MOTION_DDOT":0},{"OBJECT_NAME":"FENGYUN 1C DEB","OBJECT_ID":"1999-025AZR","EPOCH":"2024-10-26T14:20:02.975424","MEAN_MOTION":14.05326957,"ECCENTRICITY":0.0104663,"INCLINATION":99.2044,"RA_OF_ASC_NODE":347.9445,"ARG_OF_PERICENTER":73.7655,"MEAN_ANOMALY":287.4997,"EPHEMERIS_TYPE":0,"CLASSIFICATION_TYPE":"U","NORAD_CAT_ID":30927,"ELEMENT_SET_NO":999,"REV_AT_EPOCH":89968,"BSTAR":0.0035802,"MEAN_MOTION_DOT":6.049e-5,"MEAN_MOTION_DDOT":0},{"OBJECT_NAME":"FENGYUN 1C DEB","OBJECT_ID":"1999-025AZS","EPOCH":"2024-10-28T15:40:33.589920","MEAN_MOTION":13.21041233,"ECCENTRICITY":0.0455437,"INCLINATION":98.8642,"RA_OF_ASC_NODE":86.6735,"ARG_OF_PERICENTER":310.215,"MEAN_ANOMALY":57.0538,"EPHEMERIS_TYPE":0,"CLASSIFICATION_TYPE":"U","NORAD_CAT_ID":30928,"ELEMENT_SET_NO":999,"REV_AT_EPOCH":84931,"BSTAR":0.0035914,"MEAN_MOTION_DOT":2.491e-5,"MEAN_MOTION_DDOT":0},{"OBJECT_NAME":"FENGYUN 1C DEB","OBJECT_ID":"1999-025AZU","EPOCH":"2024-10-27T21:09:41.092704","MEAN_MOTION":14.3571167,"ECCENTRICITY":0.0109926,"INCLINATION":98.2639,"RA_OF_ASC_NODE":341.701,"ARG_OF_PERICENTER":259.2315,"MEAN_ANOMALY":275.8595,"EPHEMERIS_TYPE":0,"CLASSIFICATION_TYPE":"U","NORAD_CAT_ID":30930,"ELEMENT_SET_NO":999,"REV_AT_EPOCH":92432,"BSTAR":0.0015871,"MEAN_MOTION_DOT":4.869e-5,"MEAN_MOTION_DDOT":0}]